[{"OBJECT_NAME":"YAOGAN-40 02C","OBJECT_ID":"2025-096C","EPOCH":"2026-03-09T23:00:48.049344","MEAN_MOTION":14.12429028,"ECCENTRICITY":0.00019858,"INCLINATION":85.9918,"RA_OF_ASC_NODE":231.6606,"ARG_OF_PERICENTER":86.0596,"MEAN_ANOMALY":274.0814,"EPHEMERIS_TYPE":0,"CLASSIFICATION_TYPE":"U","NORAD_CAT_ID":63920,"ELEMENT_SET_NO":999,"REV_AT_EPOCH":6140,"BSTAR":0.00013239908,"MEAN_MOTION_DOT":2.63e-6,"MEAN_MOTION_DDOT":0},{"OBJECT_NAME":"CZ-6A DEB","OBJECT_ID":"2024-140TG","EPOCH":"2026-03-09T14:44:33.139680","MEAN_MOTION":14.1968542,"ECCENTRICITY":0.0049643,"INCLINATION":89.0098,"RA_OF_ASC_NODE":286.9322,"ARG_OF_PERICENTER":138.8948,"MEAN_ANOMALY":221.5999,"EPHEMERIS_TYPE":0,"CLASSIFICATION_TYPE":"U","NORAD_CAT_ID":61295,"ELEMENT_SET_NO":999,"REV_AT_EPOCH":7915,"BSTAR":0.00040205,"MEAN_MOTION_DOT":8.75e-6,"MEAN_MOTION_DDOT":0}]
